AMC-1 (GE-1)            
1 24315U 96054A   22344.33787633  .00000076  00000+0  00000+0 0  9995
2 24315   6.0351  71.6417 0003806 190.8996 167.2363  1.00272039 33432
AMC-3 (GE-3)            
1 24936U 97050A   22345.28463799 -.00000247  00000+0  00000+0 0  9991
2 24936   4.9766  77.8053 0003454 186.5677 206.0765  1.00271967 92576
ASTRA 1G                
1 25071U 97076A   22344.92652778  .00000127  00000+0  00000+0 0  9993
2 25071   6.6478  66.9170 0003992 196.0823 169.5676  1.00272070 91660
ASTRA 2A                
1 25462U 98050A   22344.79767067  .00000083  00000+0  00000+0 0  9994
2 25462   3.8441  83.6642 0003421 175.2056 164.9925  1.00270415 33457
AMC-4 (GE-4)            
1 25954U 99060A   22345.16466310  .00000102  00000+0  00000+0 0  9993
2 25954   1.9652  89.8056 0003252 176.5036  97.9372  1.00271449 84610
NSS-11 (AAP-1)          
1 26554U 00059A   22344.88599606  .00000041  00000+0  00000+0 0  9995
2 26554   0.0133 347.1159 0002528 284.4396 303.0082  1.00272129 81294
AMC-6 (GE-6)            
1 26580U 00067A   22344.67958948  .00000120  00000+0  00000+0 0  9996
2 26580   0.0162 327.7998 0003274 300.1914 277.0456  1.00271139 81038
ASTRA 2D                
1 26638U 00081A   22344.92739943  .00000140  00000+0  00000+0 0  9998
2 26638   7.6656  59.0916 0001920 209.0453 169.0372  1.00269981 80510
AMC-8 (GE-8)            
1 26639U 00081B   22344.83518080 -.00000200  00000+0  00000+0 0  9994
2 26639   2.8040  87.9220 0004649 202.1058 259.2618  0.99153976 80393
ASTRA 2C                
1 26853U 01025A   22345.13548834 -.00000246  00000+0  00000+0 0  9995
2 26853   5.0004  77.6150 0003414 190.3304 148.2107  1.00271377 78694
ASTRA 3A                
1 27400U 02015B   22344.64426178 -.00000183  00000+0  00000+0 0  9995
2 27400   7.7728  58.0238 0000853 273.9627 153.7171  0.99090478 75849
NSS-7                   
1 27414U 02019A   22345.06216628 -.00000146  00000+0  00000+0 0  9997
2 27414   6.3114  69.8405 0002539 197.0753 175.2167  1.00271510 75680
NSS-6                   
1 27603U 02057A   22344.74548615  .00000123  00000+0  00000+0 0  9991
2 27603   2.0553  89.5873 0004008 175.0979 273.6516  1.00270545 73166
AMC-11 (GE-11)          
1 28252U 04017A   22345.16712236  .00000085  00000+0  00000+0 0  9996
2 28252   0.0746 290.1214 0002753 345.2692  93.6441  1.00271478 67825
AMC-15                  
1 28446U 04041A   22344.61482597 -.00000073  00000+0  00000+0 0  9999
2 28446   0.0166 345.1289 0002714 282.4566 288.0322  1.00272500 66440
NSS-10 (AMC-12)         
1 28526U 05003A   22345.09910660 -.00000236  00000+0  00000+0 0  9998
2 28526   3.2222  85.4454 0003150 170.9372 181.6444  1.00271057 65444
ASTRA 1KR               
1 29055U 06012A   22345.19771590  .00000136  00000+0  00000+0 0  9993
2 29055   0.0116 307.1210 0005434 300.3877 282.7500  1.00272792 60874
AMC-18                  
1 29644U 06054B   22345.40827413 -.00000200  00000+0  00000+0 0  9996
2 29644   0.0269  51.3332 0002911 212.9017 239.8504  1.00271358 58658
ASTRA 1L                
1 31306U 07016A   22345.50040757  .00000136  00000+0  00000+0 0  9999
2 31306   0.0381 338.6829 0005432 299.9962   0.8407  1.00271892 57164
ASTRA 4A (SIRIUS 4)     
1 32299U 07057A   22345.16230203  .00000049  00000+0  00000+0 0  9998
2 32299   0.0140  13.9962 0003196 248.8841 240.2214  1.00271784 55089
AMC-21                  
1 33275U 08038B   22345.46360431  .00000052  00000+0  00000+0 0  9997
2 33275   0.0388  62.4173 0002781 206.0915 213.6504  1.00272347 52593
ASTRA 1M                
1 33436U 08057A   22345.07001115  .00000136  00000+0  00000+0 0  9998
2 33436   0.0272  74.1551 0002837 134.9887 275.0060  1.00270812 51608
CIEL-2                  
1 33453U 08063A   22345.45952098  .00000074  00000+0  00000+0 0  9992
2 33453   0.0373 107.4980 0003137 159.5260 209.7050  1.00270869 51253
NSS-9                   
1 33749U 09008A   22344.81574111  .00000088  00000+0  00000+0 0  9990
2 33749   0.0161 345.7374 0002465 272.5587 297.9523  1.00271757 50688
SES-7 (PROTOSTAR 2)     
1 34941U 09027A   22345.44702170 -.00000329  00000+0  00000+0 0  9993
2 34941   0.0636  87.4595 0002573 179.5345  82.3374  1.00270869 49741
NSS-12                  
1 36032U 09058A   22345.14921957  .00000087  00000+0  00000+0 0  9993
2 36032   0.0134 333.9305 0003184 292.2483 284.3971  1.00272746 48034
SES-1                   
1 36516U 10016A   22345.21684240 -.00000099  00000+0  00000+0 0  9999
2 36516   0.0129 339.8760 0002663 282.2323 154.8809  1.00272944 46262
ASTRA 3B                
1 36581U 10021A   22344.81160578  .00000153  00000+0  00000+0 0  9995
2 36581   0.0539 326.8187 0003716 281.2346 147.1396  1.00271981 45997
SES-3                   
1 37748U 11035A   22345.14864220 -.00000086  00000+0  00000+0 0  9995
2 37748   0.0184 354.4154 0003194 266.9708 128.9743  1.00274693 41826
ASTRA 1N                
1 37775U 11041A   22345.19771590  .00000136  00000+0  00000+0 0  9999
2 37775   0.0513  22.4282 0001943 303.9523 203.8869  1.00270633 41522
SES-2                   
1 37809U 11049A   22345.22196571 -.00000180  00000+0  00000+0 0  9999
2 37809   0.0108 358.9113 0002915 265.3601 168.5556  1.00273145 41125
QUETZSAT 1              
1 37826U 11054A   22345.40949444 -.00000226  00000+0  00000+0 0  9990
2 37826   0.0133 345.1381 0002923 269.5269 255.8600  1.00272266 41226
SES-4                   
1 38087U 12007A   22344.70312399 -.00000152  00000+0  00000+0 0  9992
2 38087   0.0126  16.7046 0002238 244.5861  49.2506  1.00271428 39357
SES-5                   
1 38652U 12036A   22344.70852822  .00000050  00000+0  00000+0 0  9998
2 38652   0.0550 297.1242 0002160 319.3002  83.0426  1.00273545 31600
ASTRA 2F                
1 38778U 12051A   22345.50215087  .00000166  00000+0  00000+0 0  9997
2 38778   0.0585 239.6569 0004269   5.5202  44.0018  1.00272760 37415
SES-6                   
1 39172U 13026A   22344.77119980 -.00000245  00000+0  00000+0 0  9991
2 39172   0.0169 345.2745 0002491 279.5688  51.7664  1.00272842 34845
O3B FM5                 
1 39188U 13031A   22345.18046819 -.00000020  00000+0  00000+0 0  9991
2 39188   0.0658   8.5648 0002843 256.3365  95.0687  5.00115424172892
O3B FM4                 
1 39189U 13031B   22344.63673721 -.00000021  00000+0  00000+0 0  9990
2 39189   0.0412 354.0265 0002780 270.2244  95.7199  5.00115938172789
O3B FM2                 
1 39190U 13031C   22345.12802141 -.00000021  00000+0  00000+0 0  9997
2 39190   0.0379 348.3934 0002777 275.1820  96.3954  5.00115190172867
O3B PFM                 
1 39191U 13031D   22344.15479661 -.00000021  00000+0  00000+0 0  9997
2 39191   0.0570   6.7765 0002754 252.4718 100.7233  5.00115820172373
ASTRA 2E                
1 39285U 13056A   22345.36577113  .00000166  00000+0  00000+0 0  9992
2 39285   0.0591 343.1172 0002166 276.9120 340.1755  1.00271719 33714
SES-8                   
1 39460U 13071A   22344.81033833 -.00000254  00000+0  00000+0 0  9998
2 39460   0.0193 273.4003 0000975 314.9826 237.8425  1.00273302 31553
ASTRA 5B                
1 39617U 14011B   22344.86264038  .00000170  00000+0  00000+0 0  9991
2 39617   0.0498 319.3670 0003888 285.6264 176.6312  1.00269780 31797
O3B FM3                 
1 40079U 14038A   22344.60938929 -.00000021  00000+0  00000+0 0  9999
2 40079   0.0480 359.1126 0004449 232.1952 128.6549  5.00116702148781
O3B FM7                 
1 40080U 14038B   22344.35557642 -.00000021  00000+0  00000+0 0  9992
2 40080   0.0474 353.6887 0002793 305.1884  61.0975  5.00115623153605
O3B FM6                 
1 40081U 14038C   22344.38197455 -.00000021  00000+0  00000+0 0  9998
2 40081   0.0470 359.3600 0002821 260.2768 100.3340  5.00115386153555
O3B FM8                 
1 40082U 14038D   22344.63573307 -.00000021  00000+0  00000+0 0  9991
2 40082   0.0438 358.3336 0002677 259.6484 101.9905  5.00115792153679
O3B FM10                
1 40348U 14083A   22344.66187864 -.00000021  00000+0  00000+0 0  9998
2 40348   0.0520   8.0094 0002733 251.8166 100.1456  5.00115220145635
O3B FM11                
1 40349U 14083B   22344.67529567 -.00000021  00000+0  00000+0 0  9990
2 40349   0.0550   4.0745 0002998 269.3924  86.5013  5.00115446145655
O3B FM12                
1 40350U 14083C   22344.70252359 -.00000021  00000+0  00000+0 0  9998
2 40350   0.0540   4.0052 0002926 257.3772  98.5870  5.00115340145653
O3B FM9                 
1 40351U 14083D   22344.52938021 -.00000021  00000+0  00000+0 0  9996
2 40351   0.0560   3.4778 0002746 258.1301  98.3634  5.00116180145807
ASTRA 2G                
1 40364U 14089A   22345.07757986  .00000166  00000+0  00000+0 0  9995
2 40364   0.0340   7.8193 0001076   0.8213 127.2966  1.00273136 29144
SES-9                   
1 41380U 16013A   22345.30327198 -.00000329  00000+0  00000+0 0  9999
2 41380   0.0134 317.5871 0000218 291.0487  48.8450  1.00270945 24878
SES-10                  
1 42432U 17017A   22345.50466200 -.00000257  00000+0  00000+0 0  9993
2 42432   0.0134  26.5295 0003143 240.8141 287.6458  1.00271794 20851
SES-15                  
1 42709U 17026A   22344.44841999  .00000076  00000+0  00000+0 0  9992
2 42709   0.0179   0.5881 0000572 275.4638 195.3818  1.00267859 21266
SES-11 (ECHOSTAR 105)   
1 42967U 17063A   22344.68656267 -.00000073  00000+0  00000+0 0  9995
2 42967   0.0127 340.1117 0003074 281.3527 320.1457  1.00271768 18844
SES-14                  
1 43175U 18012B   22344.76980516 -.00000262  00000+0  00000+0 0  9998
2 43175   0.0121 327.0926 0001261 287.8657  54.1543  1.00271492 18173
O3B FM15                
1 43231U 18024A   22345.19499395 -.00000020  00000+0  00000+0 0  9994
2 43231   0.0503  11.3986 0003079 249.7298  98.8391  5.00116211 86965
O3B FM16                
1 43232U 18024B   22344.64874074 -.00000021  00000+0  00000+0 0  9996
2 43232   0.0496  16.1722 0003077 245.0432  98.7522  5.00116029 86686
O3B FM14                
1 43233U 18024C   22345.08825628 -.00000021  00000+0  00000+0 0  9997
2 43233   0.0488  17.5703 0003001 247.3076  95.0902  5.00115487 86946
O3B FM13                
1 43234U 18024D   22344.74200859 -.00000021  00000+0  00000+0 0  9993
2 43234   0.0598   8.6396 0003912 252.0673  99.2512  5.00115344 86816
SES-12                  
1 43488U 18049A   22344.39077150 -.00000254  00000+0  00000+0 0  9996
2 43488   0.0309  53.0903 0002833 215.1824  46.5154  1.00271459 16539
O3B FM20                
1 44112U 19020A   22344.71516508 -.00000021  00000+0  00000+0 0  9994
2 44112   0.0513   7.7349 0003381 257.1286  95.1003  5.00115528 67300
O3B FM19                
1 44113U 19020B   22344.74201607 -.00000021  00000+0  00000+0 0  9999
2 44113   0.0735  13.8810 0002474 275.8188  70.2760  5.00115408 67185
O3B FM17                
1 44114U 19020C   22344.62255802 -.00000021  00000+0  00000+0 0  9993
2 44114   0.0323  14.5207 0003201 245.6573  99.7883  5.00115723 67259
O3B FM18                
1 44115U 19020D   22344.76893920 -.00000021  00000+0  00000+0 0  9998
2 44115   0.0517   7.7273 0002977 251.7252 100.5165  5.00115853 67385
SES-17                  
1 49332U 21095A   22345.28972510 -.00000256  00000+0  00000+0 0  9990
2 49332   0.0135  46.1484 0001268 219.2456 211.7984  1.00269422  4962
SES-22                  
1 52933U 22071A   22345.45265177  .00000104  00000+0  00000+0 0  9990
2 52933   0.0148 317.4133 0002925 300.5149 210.1836  1.00273046  1699
